{
    "links": {
        "self": "http://www.neowsapp.com/rest/v1/neo/3726787?api_key=iIulBulltgU6a56xZRHN4H3l9WmuAYTsLGpBGhQ2"
    },
    "id": "3726787",
    "neo_reference_id": "3726787",
    "name": "(2015 RC2)",
    "designation": "2015 RC2",
    "nasa_jpl_url": "http://ssd.jpl.nasa.gov/sbdb.cgi?sstr=3726787",
    "absolute_magnitude_h": 22.9,
    "estimated_diameter": {
        "kilometers": {
            "estimated_diameter_min": 0.0699125232,
            "estimated_diameter_max": 0.1563291544
        },
        "meters": {
            "estimated_diameter_min": 69.9125232246,
            "estimated_diameter_max": 156.3291544087
        },
        "miles": {
            "estimated_diameter_min": 0.0434416145,
            "estimated_diameter_max": 0.097138403
        },
        "feet": {
            "estimated_diameter_min": 229.3718026961,
            "estimated_diameter_max": 512.8909429502
        }
    },
    "is_potentially_hazardous_asteroid": false,
    "close_approach_data": [
        {
            "close_approach_date": "1959-09-09",
            "close_approach_date_full": "1959-Sep-09 07:36",
            "epoch_date_close_approach": -325441440000,
            "relative_velocity": {
                "kilometers_per_second": "15.2255526833",
                "kilometers_per_hour": "54811.9896597688",
                "miles_per_hour": "34058.0387972046"
            },
            "miss_distance": {
                "astronomical": "0.4905855455",
                "lunar": "190.8377771995",
                "kilometers": "73390552.659588085",
                "miles": "45602774.793902173"
            },
            "orbiting_body": "Earth"
        },
        {
            "close_approach_date": "1987-08-29",
            "close_approach_date_full": "1987-Aug-29 10:09",
            "epoch_date_close_approach": 557230140000,
            "relative_velocity": {
                "kilometers_per_second": "9.0899762261",
                "kilometers_per_hour": "32723.9144139929",
                "miles_per_hour": "20333.3678201836"
            },
            "miss_distance": {
                "astronomical": "0.2564510583",
                "lunar": "99.7594616787",
                "kilometers": "38364532.080925821",
                "miles": "23838614.8238294898"
            },
            "orbiting_body": "Earth"
        },
        {
            "close_approach_date": "2015-08-22",
            "close_approach_date_full": "2015-Aug-22 17:50",
            "epoch_date_close_approach": 1440265800000,
            "relative_velocity": {
                "kilometers_per_second": "6.4596313483",
                "kilometers_per_hour": "23254.6728538275",
                "miles_per_hour": "14449.5493629796"
            },
            "miss_distance": {
                "astronomical": "0.1563432108",
                "lunar": "60.8175090012",
                "kilometers": "23388611.324640996",
                "miles": "14533009.1725419048"
            },
            "orbiting_body": "Earth"
        }
    ],
    "orbital_data": {
        "orbit_id": "11",
        "orbit_determination_date": "2017-04-06 08:32:12",
        "first_observation_date": "2015-09-05",
        "last_observation_date": "2015-10-09",
        "data_arc_in_days": 34,
        "observations_used": 42,
        "orbit_uncertainty": "6",
        "minimum_orbit_intersection": ".144662",
        "jupiter_tisserand_invariant": "3.569",
        "epoch_osculation": "2459000.5",
        "eccentricity": ".459641840603097",
        "semi_major_axis": "2.13023929709579",
        "inclination": "7.677247601094164",
        "ascending_node_longitude": "160.1698810660018",
        "orbital_period": "1135.640872841733",
        "perihelion_distance": "1.151092185653633",
        "perihelion_argument": "162.2122908298915",
        "aphelion_distance": "3.109386408537946",
        "perihelion_time": "2459524.624607557118",
        "mean_anomaly": "193.8516486744499",
        "mean_motion": ".3170016231444418",
        "equinox": "J2000",
        "orbit_class": {
            "orbit_class_type": "AMO",
            "orbit_class_description": "Near-Earth asteroid orbits similar to that of 1221 Amor",
            "orbit_class_range": "1.017 AU < q (perihelion) < 1.3 AU"
        }
    },
    "is_sentry_object": false
}